NORAD_CAT_ID,OBJECT_NAME,OBJECT_TYPE,EPOCH,MEAN_MOTION,ECCENTRICITY,INCLINATION,RA_OF_ASC_NODE,ARG_OF_PERICENTER,MEAN_ANOMALY,BSTAR,MEAN_MOTION_DOT,MEAN_MOTION_DDOT,TLE_LINE0,TLE_LINE1,TLE_LINE2,SEMIMAJOR_AXIS,PERIOD,APOGEE,PERIGEE,DECAYED
53553.0,STARLINK-4501,PAYLOAD,2023-01-26 14:24:30,15.0884237,0.0001044999999999,53.2196,133.1993,103.9641,256.1468,3.5464e-05,2.77e-06,0.0,0 STARLINK-4501,1 53553U 22101AC  23026.60034850  .00000277  00000-0  35464-4 0  9998,2 53553  53.2196 133.1993 0001045 103.9641 256.1468 15.08842370 25155,6917.8730000000005,95.437,540.461,539.015,0.0
53553.0,STARLINK-4501,PAYLOAD,2023-01-27 07:53:45,15.08828509,9.67e-05,53.2196,129.9289,90.2106,269.8997,-2.6005e-06,-3.29e-06,0.0,0 STARLINK-4501,1 53553U 22101AC  23027.32900031 -.00000329  00000-0 -26005-5 0  9993,2 53553  53.2196 129.9289 0000967  90.2106 269.8997 15.08828509 24607,6917.916,95.438,540.4490000000001,539.112,0.0
53553.0,STARLINK-4501,PAYLOAD,2023-01-27 14:15:17,15.08838198,0.0001173,53.2195,128.7388,91.7149,268.3978,4.7866000000000006e-05,4.74e-06,0.0,0 STARLINK-4501,1 53553U 22101AC  23027.59395355  .00000474  00000-0  47866-4 0  9995,2 53553  53.2195 128.7388 0001173  91.7149 268.3978 15.08838198 25302,6917.886,95.438,540.562,538.939,0.0
53553.0,STARLINK-4501,PAYLOAD,2023-01-28 12:30:41,15.08840001,0.0001219,53.2188,124.5758,85.1392,274.9739,-2.0928e-05,-6.21e-06,0.0,0 STARLINK-4501,1 53553U 22101AC  23028.52131654 -.00000621  00000-0 -20928-4 0  9995,2 53553  53.2188 124.5758 0001219  85.1392 274.9739 15.08840001 25446,6917.88,95.438,540.589,538.902,0.0
53553.0,STARLINK-4501,PAYLOAD,2023-01-28 15:41:27,15.08845739,0.0001136,53.2181,123.9801,84.1809,275.9313,1.0521e-05,-1.2e-06,0.0,0 STARLINK-4501,1 53553U 22101AC  23028.65379145 -.00000120  00000-0  10521-4 0  9999,2 53553  53.2181 123.9801 0001136  84.1809 275.9313 15.08845739 24802,6917.863,95.437,540.514,538.942,0.0
53553.0,STARLINK-4501,PAYLOAD,2023-01-29 10:46:05,15.08834267,0.0001316,53.2186,120.4132,85.694,274.4202,4.0585e-05,3.58e-06,0.0,0 STARLINK-4501,1 53553U 22101AC  23029.44867803  .00000358  00000-0  40585-4 0  9995,2 53553  53.2186 120.4132 0001316  85.6940 274.4202 15.08834267 24926,6917.898,95.438,540.673,538.853,0.0
53553.0,STARLINK-4501,PAYLOAD,2023-01-29 15:32:14,15.08841282,0.0001207,53.218,119.5198,90.5624,269.5507,8.1159e-07,-2.75e-06,0.0,0 STARLINK-4501,1 53553U 22101AC  23029.64739482 -.00000275  00000-0  81159-6 0  9991,2 53553  53.2180 119.5198 0001207  90.5624 269.5507 15.08841282 25619,6917.876,95.437,540.576,538.906,0.0
53553.0,STARLINK-4501,PAYLOAD,2023-01-30 10:36:52,15.08835035,0.0001149,53.2186,115.9525,89.0061,271.1063,5.8451e-05,6.42e-06,0.0,0 STARLINK-4501,1 53553U 22101AC  23030.44227756  .00000642  00000-0  58451-4 0  9991,2 53553  53.2186 115.9525 0001149  89.0061 271.1063 15.08835035 25730,6917.896,95.438,540.555,538.966,0.0
53553.0,STARLINK-4501,PAYLOAD,2023-01-31 05:41:30,15.08822994,0.0001137,53.2172,112.3823,105.8571,254.2547,0.00019207,2.769e-05,0.0,0 STARLINK-4501,1 53553U 22101AC  23031.23715970  .00002769  00000-0  19207-3 0  9996,2 53553  53.2172 112.3823 0001137 105.8571 254.2547 15.08822994 25196,6917.932,95.439,540.584,539.011,0.0
53553.0,STARLINK-4501,PAYLOAD,2023-01-31 13:38:25,15.08842624,0.0001096,53.2177,110.8977,85.6417,274.4701,3.4204e-05,2.57e-06,0.0,0 STARLINK-4501,1 53553U 22101AC  23031.56835387  .00000257  00000-0  34204-4 0  9992,2 53553  53.2177 110.8977 0001096  85.6417 274.4701 15.08842624 25909,6917.872,95.437,540.496,538.979,0.0
53553.0,STARLINK-4501,PAYLOAD,2023-01-31 15:13:48,15.08842905,0.0001076,53.2177,110.6,91.9716,268.1399,3.6751e-05,2.97e-06,0.0,0 STARLINK-4501,1 53553U 22101AC  23031.63459319  .00000297  00000-0  36751-4 0  9990,2 53553  53.2177 110.6000 0001076  91.9716 268.1399 15.08842905 25257,6917.872,95.437,540.481,538.992,0.0
53553.0,STARLINK-4501,PAYLOAD,2023-01-31 21:35:21,15.08840713,0.0001052,53.2173,109.4108,96.0854,264.0258,-5.1832e-05,-1.113e-05,0.0,0 STARLINK-4501,1 53553U 22101AC  23031.89955711 -.00001113  00000-0 -51832-4 0  9992,2 53553  53.2173 109.4108 0001052  96.0854 264.0258 15.08840713 25952,6917.878,95.438,540.471,539.015,0.0
53553.0,STARLINK-4501,PAYLOAD,2023-02-01 13:29:12,15.08845052,0.000127,53.2191,106.4373,94.9635,265.1502,5.383e-05,5.69e-06,0.0,0 STARLINK-4501,1 53553U 22101AC  23032.56195109  .00000569  00000-0  53830-4 0  9996,2 53553  53.2191 106.4373 0001270  94.9635 265.1502 15.08845052 26056,6917.865,95.437,540.609,538.851,0.0
53553.0,STARLINK-4501,PAYLOAD,2023-02-01 21:26:08,15.08838938,0.0001329,53.2199,104.9515,95.6978,264.4165,1.4593e-05,-5.6e-07,0.0,0 STARLINK-4501,1 53553U 22101AC  23032.89315599 -.00000056  00000-0  14593-4 0  9994,2 53553  53.2199 104.9515 0001329  95.6978 264.4165 15.08838938 25442,6917.884,95.438,540.668,538.829,0.0
53553.0,STARLINK-4501,PAYLOAD,2023-02-02 13:20:00,15.08835085,0.000118,53.2183,101.9765,97.6396,262.473,-7.6742e-05,-1.509e-05,0.0,0 STARLINK-4501,1 53553U 22101AC  23033.55556287 -.00001509  00000-0 -76742-4 0  9998,2 53553  53.2183 101.9765 0001180  97.6396 262.4730 15.08835085 26201,6917.895,95.438,540.577,538.944,0.0
53553.0,STARLINK-4501,PAYLOAD,2023-02-02 21:16:56,15.08832374,0.0001493,53.2191,100.4893,87.6155,272.5008,-3.0806e-05,-7.78e-06,0.0,0 STARLINK-4501,1 53553U 22101AC  23033.88676546 -.00000778  00000-0 -30806-4 0  9993,2 53553  53.2191 100.4893 0001493  87.6155 272.5008 15.08832374 25594,6917.904,95.438,540.802,538.736,0.0
53553.0,STARLINK-4501,PAYLOAD,2023-02-03 08:24:38,15.08832989,0.0001159,53.2193,98.4091,96.4447,263.6677,-6.0881e-06,-3.85e-06,0.0,0 STARLINK-4501,1 53553U 22101AC  23034.35044499 -.00000385  00000-0 -60881-5 0  9993,2 53553  53.2193  98.4091 0001159  96.4447 263.6677 15.08832989 26320,6917.902,95.438,540.569,538.965,0.0
53553.0,STARLINK-4501,PAYLOAD,2023-02-04 11:26:11,15.08842219,0.0001273,53.2189,93.3536,92.7175,267.3963,8.5351e-05,1.071e-05,0.0,0 STARLINK-4501,1 53553U 22101AC  23035.47651805  .00001071  00000-0  85351-4 0  9991,2 53553  53.2189  93.3536 0001273  92.7175 267.3963 15.08842219 25838,6917.874,95.437,540.619,538.858,0.0
53553.0,STARLINK-4501,PAYLOAD,2023-02-04 13:01:33,15.08847643,0.0001203,53.2188,93.0565,95.8618,264.2511,0.00013486,1.86e-05,0.0,0 STARLINK-4501,1 53553U 22101AC  23035.54275271  .00001860  00000-0  13486-3 0  9993,2 53553  53.2188  93.0565 0001203  95.8618 264.2511 15.08847643 26501,6917.857,95.437,540.554,538.89,0.0
53553.0,STARLINK-4501,PAYLOAD,2023-02-04 20:58:30,15.088321,0.0001569,53.2196,91.57,85.3463,274.7709,1.9904e-05,2.9e-07,0.0,0 STARLINK-4501,1 53553U 22101AC  23035.87396793  .00000029  00000-0  19904-4 0  9990,2 53553  53.2196  91.5700 0001569  85.3463 274.7709 15.08832100 26553,6917.905,95.438,540.855,538.684,0.0
53553.0,STARLINK-4501,PAYLOAD,2023-02-05 03:20:03,15.08831041,0.0001309,53.2183,90.3806,87.4646,272.6496,-1.4125e-05,-5.13e-06,0.0,0 STARLINK-4501,1 53553U 22101AC  23036.13892979 -.00000513  00000-0 -14125-4 0  9997,2 53553  53.2183  90.3806 0001309  87.4646 272.6496 15.08831041 25935,6917.908,95.438,540.678,538.867,0.0
53553.0,STARLINK-4501,PAYLOAD,2023-02-05 09:41:36,15.08833009,0.000126,53.2179,89.1905,89.1324,270.9812,-1.8788e-05,-5.87e-06,0.0,0 STARLINK-4501,1 53553U 22101AC  23036.40388965 -.00000587  00000-0 -18788-4 0  9992,2 53553  53.2179  89.1905 0001260  89.1324 270.9812 15.08833009 26631,6917.902,95.438,540.638,538.895,0.0
53553.0,STARLINK-4501,PAYLOAD,2023-02-05 20:49:17,15.08842129,0.0001181,53.2182,87.1095,87.8957,272.217,2.203e-05,6.3e-07,0.0,0 STARLINK-4501,1 53553U 22101AC  23036.86756246  .00000063  00000-0  22030-4 0  9995,2 53553  53.2182  87.1095 0001181  87.8957 272.2170 15.08842129 26705,6917.874,95.437,540.556,538.922,0.0
53553.0,STARLINK-4501,PAYLOAD,2023-02-06 00:00:03,15.08842634,0.0001309,53.2181,86.5147,87.6128,272.5014,8.806e-06,-1.48e-06,0.0,0 STARLINK-4501,1 53553U 22101AC  23037.00004288 -.00000148  00000-0  88060-5 0  9995,2 53553  53.2181  86.5147 0001309  87.6128 272.5014 15.08842634 26065,6917.872,95.437,540.643,538.832,0.0
53553.0,STARLINK-4501,PAYLOAD,2023-02-06 09:32:21,15.08855634,0.0001249,53.2178,84.7299,87.4664,272.6471,2.2484e-05,7e-07,0.0,0 STARLINK-4501,1 53553U 22101AC  23037.39747298  .00000070  00000-0  22484-4 0  9992,2 53553  53.2178  84.7299 0001249  87.4664 272.6471 15.08855634 26124,6917.833,95.437,540.562,538.834,0.0
53553.0,STARLINK-4501,PAYLOAD,2023-02-06 12:43:07,15.08859964,0.0001269,53.2176,84.1339,92.6308,267.483,6.1223e-05,6.87e-06,0.0,0 STARLINK-4501,1 53553U 22101AC  23037.52994717  .00000687  00000-0  61223-4 0  9995,2 53553  53.2176  84.1339 0001269  92.6308 267.4830 15.08859964 26802,6917.819,95.436,540.562,538.806,0.0
53553.0,STARLINK-4501,PAYLOAD,2023-02-06 23:50:50,15.08838082,0.0001322,53.2177,82.0534,94.993,265.1213,3.2352e-05,2.27e-06,0.0,0 STARLINK-4501,1 53553U 22101AC  23037.99363969  .00000227  00000-0  32352-4 0  9996,2 53553  53.2177  82.0534 0001322  94.9930 265.1213 15.08838082 26216,6917.886,95.438,540.666,538.837,0.0
53553.0,STARLINK-4501,PAYLOAD,2023-02-07 12:33:54,15.08847319,0.00014,53.2177,79.6726,106.651,253.4636,6.806e-05,7.96e-06,0.0,0 STARLINK-4501,1 53553U 22101AC  23038.52355122  .00000796  00000-0  68060-4 0  9994,2 53553  53.2177  79.6726 0001400 106.6510 253.4636 15.08847319 26956,6917.858,95.437,540.692,538.755,0.0
53553.0,STARLINK-4501,PAYLOAD,2023-02-08 09:13:56,15.08840543,0.0002344,53.2185,75.801,142.7154,217.4001,-5.2543e-05,-1.125e-05,0.0,0 STARLINK-4501,1 53553U 22101AC  23039.38467773 -.00001125  00000-0 -52543-4 0  9993,2 53553  53.2185  75.8010 0002344 142.7154 217.4001 15.08840543 26422,6917.879,95.438,541.365,538.122,0.0
53553.0,STARLINK-4501,PAYLOAD,2023-02-09 02:43:11,15.08831051,0.0001412,53.218,72.5397,108.5895,251.5251,-3.4881e-05,-8.43e-06,0.0,0 STARLINK-4501,1 53553U 22101AC  23040.11332677 -.00000843  00000-0 -34881-4 0  9991,2 53553  53.2180  72.5397 0001412 108.5895 251.5251 15.08831051 26538,6917.908,95.438,540.75,538.796,0.0
